IRIDIUM 173             
1 43925U 19002D   26064.23160743 -.00000608  00000+0 -22419-3 0  9995
2 43925  86.3957  36.9964 0002021  80.3787 279.7637 14.34213547374052
IRIDIUM 169             
1 43926U 19002E   26064.05770095  .00000200  00000+0  58834-4 0  9990
2 43926  86.4166  68.7257 0001534  76.5436 283.5934 14.38610663375250
IRIDIUM 172             
1 43927U 19002F   26064.22526493  .00000091  00000+0  25464-4 0  9992
2 43927  86.3965  37.0061 0002358  86.5640 273.5825 14.34218159374068
IRIDIUM 175             
1 43928U 19002G   26064.23176913  .00000735  00000+0  11267-3 0  9992
2 43928  86.1540 334.7738 0002346 110.5189 249.6280 14.72248933383948
IRIDIUM 171             
1 43929U 19002H   26063.92716324 -.00000014  00000+0 -12241-4 0  9990
2 43929  86.3969  37.4262 0001954  91.5147 268.6273 14.34217364374014
IRIDIUM 170             
1 43930U 19002J   26064.17457082  .00001188  00000+0  18443-3 0  9993
2 43930  86.6085  37.0131 0002653  91.0988 269.0533 14.72259438383951
IRIDIUM 167             
1 43931U 19002K   26063.85105156 -.00000021  00000+0 -14688-4 0  9995
2 43931  86.3962  37.1847 0001739  90.8823 269.2572 14.34217458374002
IRIDIUM 181             
1 56726U 23068S   26064.18169259  .00000444  00000+0  12578-3 0  9991
2 56726  86.4459 100.2858 0002617  97.5357 262.6141 14.43315589147434
IRIDIUM 177             
1 56727U 23068T   26064.28368660  .00002107  00000+0  27367-3 0  9990
2 56727  86.1998  18.1132 0002351  80.9484 279.2003 14.80246309150994
IRIDIUM 174             
1 56728U 23068U   26063.41457174  .00001511  00000+0  23568-3 0  9991
2 56728  86.6092  37.4681 0002585  83.1939 276.9572 14.72262153150606
IRIDIUM 178             
1 56729U 23068V   26064.27280450  .00000768  00000+0  97649-4 0  9993
2 56729  86.6483  68.7864 0002357 100.6352 259.5136 14.80231764150990
IRIDIUM 179             
1 56730U 23068W   26063.45621340  .00000770  00000+0  97817-4 0  9991
2 56730  86.6717  77.8044 0002262  93.6045 266.5436 14.80240896150872
