[{"OBJECT_NAME":"IRIDIUM 173","OBJECT_ID":"2019-002D","EPOCH":"2026-03-05T05:33:30.881952","MEAN_MOTION":14.34213547,"ECCENTRICITY":0.00020219,"INCLINATION":86.3957,"RA_OF_ASC_NODE":36.9964,"ARG_OF_PERICENTER":80.3787,"MEAN_ANOMALY":279.7637,"EPHEMERIS_TYPE":0,"CLASSIFICATION_TYPE":"U","NORAD_CAT_ID":43925,"ELEMENT_SET_NO":999,"REV_AT_EPOCH":37405,"BSTAR":-0.00022419426,"MEAN_MOTION_DOT":-6.08e-6,"MEAN_MOTION_DDOT":0},{"OBJECT_NAME":"IRIDIUM 169","OBJECT_ID":"2019-002E","EPOCH":"2026-03-05T01:23:05.362080","MEAN_MOTION":14.38610663,"ECCENTRICITY":0.00015345,"INCLINATION":86.4166,"RA_OF_ASC_NODE":68.7257,"ARG_OF_PERICENTER":76.5436,"MEAN_ANOMALY":283.5934,"EPHEMERIS_TYPE":0,"CLASSIFICATION_TYPE":"U","NORAD_CAT_ID":43926,"ELEMENT_SET_NO":999,"REV_AT_EPOCH":37525,"BSTAR":5.8833641e-5,"MEAN_MOTION_DOT":2.0e-6,"MEAN_MOTION_DDOT":0},{"OBJECT_NAME":"IRIDIUM 172","OBJECT_ID":"2019-002F","EPOCH":"2026-03-05T05:24:22.889952","MEAN_MOTION":14.34218159,"ECCENTRICITY":0.0002358,"INCLINATION":86.3965,"RA_OF_ASC_NODE":37.0061,"ARG_OF_PERICENTER":86.564,"MEAN_ANOMALY":273.5825,"EPHEMERIS_TYPE":0,"CLASSIFICATION_TYPE":"U","NORAD_CAT_ID":43927,"ELEMENT_SET_NO":999,"REV_AT_EPOCH":37406,"BSTAR":2.5463951e-5,"MEAN_MOTION_DOT":9.1e-7,"MEAN_MOTION_DDOT":0},{"OBJECT_NAME":"IRIDIUM 175","OBJECT_ID":"2019-002G","EPOCH":"2026-03-05T05:33:44.852832","MEAN_MOTION":14.72248933,"ECCENTRICITY":0.00023469,"INCLINATION":86.154,"RA_OF_ASC_NODE":334.7738,"ARG_OF_PERICENTER":110.5189,"MEAN_ANOMALY":249.628,"EPHEMERIS_TYPE":0,"CLASSIFICATION_TYPE":"U","NORAD_CAT_ID":43928,"ELEMENT_SET_NO":999,"REV_AT_EPOCH":38394,"BSTAR":0.00011267418,"MEAN_MOTION_DOT":7.35e-6,"MEAN_MOTION_DDOT":0},{"OBJECT_NAME":"IRIDIUM 171","OBJECT_ID":"2019-002H","EPOCH":"2026-03-04T22:15:06.903936","MEAN_MOTION":14.34217364,"ECCENTRICITY":0.0001954,"INCLINATION":86.3969,"RA_OF_ASC_NODE":37.4262,"ARG_OF_PERICENTER":91.5147,"MEAN_ANOMALY":268.6273,"EPHEMERIS_TYPE":0,"CLASSIFICATION_TYPE":"U","NORAD_CAT_ID":43929,"ELEMENT_SET_NO":999,"REV_AT_EPOCH":37401,"BSTAR":-1.2240564e-5,"MEAN_MOTION_DOT":-1.4e-7,"MEAN_MOTION_DDOT":0},{"OBJECT_NAME":"IRIDIUM 170","OBJECT_ID":"2019-002J","EPOCH":"2026-03-05T04:11:22.918848","MEAN_MOTION":14.72259438,"ECCENTRICITY":0.00026531,"INCLINATION":86.6085,"RA_OF_ASC_NODE":37.0131,"ARG_OF_PERICENTER":91.0988,"MEAN_ANOMALY":269.0533,"EPHEMERIS_TYPE":0,"CLASSIFICATION_TYPE":"U","NORAD_CAT_ID":43930,"ELEMENT_SET_NO":999,"REV_AT_EPOCH":38395,"BSTAR":0.00018442533,"MEAN_MOTION_DOT":1.188e-5,"MEAN_MOTION_DDOT":0},{"OBJECT_NAME":"IRIDIUM 167","OBJECT_ID":"2019-002K","EPOCH":"2026-03-04T20:25:30.854784","MEAN_MOTION":14.34217458,"ECCENTRICITY":0.00017398,"INCLINATION":86.3962,"RA_OF_ASC_NODE":37.1847,"ARG_OF_PERICENTER":90.8823,"MEAN_ANOMALY":269.2572,"EPHEMERIS_TYPE":0,"CLASSIFICATION_TYPE":"U","NORAD_CAT_ID":43931,"ELEMENT_SET_NO":999,"REV_AT_EPOCH":37400,"BSTAR":-1.4687643e-5,"MEAN_MOTION_DOT":-2.1e-7,"MEAN_MOTION_DDOT":0},{"OBJECT_NAME":"IRIDIUM 181","OBJECT_ID":"2023-068S","EPOCH":"2026-03-05T04:21:38.239776","MEAN_MOTION":14.43315589,"ECCENTRICITY":0.00026178,"INCLINATION":86.4459,"RA_OF_ASC_NODE":100.2858,"ARG_OF_PERICENTER":97.5357,"MEAN_ANOMALY":262.6141,"EPHEMERIS_TYPE":0,"CLASSIFICATION_TYPE":"U","NORAD_CAT_ID":56726,"ELEMENT_SET_NO":999,"REV_AT_EPOCH":14743,"BSTAR":0.00012577823,"MEAN_MOTION_DOT":4.44e-6,"MEAN_MOTION_DDOT":0},{"OBJECT_NAME":"IRIDIUM 177","OBJECT_ID":"2023-068T","EPOCH":"2026-03-05T06:48:30.522240","MEAN_MOTION":14.80246309,"ECCENTRICITY":0.00023519,"INCLINATION":86.1998,"RA_OF_ASC_NODE":18.1132,"ARG_OF_PERICENTER":80.9484,"MEAN_ANOMALY":279.2003,"EPHEMERIS_TYPE":0,"CLASSIFICATION_TYPE":"U","NORAD_CAT_ID":56727,"ELEMENT_SET_NO":999,"REV_AT_EPOCH":15099,"BSTAR":0.00027367101,"MEAN_MOTION_DOT":2.107e-5,"MEAN_MOTION_DDOT":0},{"OBJECT_NAME":"IRIDIUM 174","OBJECT_ID":"2023-068U","EPOCH":"2026-03-04T09:56:58.998336","MEAN_MOTION":14.72262153,"ECCENTRICITY":0.00025851,"INCLINATION":86.6092,"RA_OF_ASC_NODE":37.4681,"ARG_OF_PERICENTER":83.1939,"MEAN_ANOMALY":276.9572,"EPHEMERIS_TYPE":0,"CLASSIFICATION_TYPE":"U","NORAD_CAT_ID":56728,"ELEMENT_SET_NO":999,"REV_AT_EPOCH":15060,"BSTAR":0.00023568259,"MEAN_MOTION_DOT":1.511e-5,"MEAN_MOTION_DDOT":0},{"OBJECT_NAME":"IRIDIUM 178","OBJECT_ID":"2023-068V","EPOCH":"2026-03-05T06:32:50.308800","MEAN_MOTION":14.80231764,"ECCENTRICITY":0.00023577,"INCLINATION":86.6483,"RA_OF_ASC_NODE":68.7864,"ARG_OF_PERICENTER":100.6352,"MEAN_ANOMALY":259.5136,"EPHEMERIS_TYPE":0,"CLASSIFICATION_TYPE":"U","NORAD_CAT_ID":56729,"ELEMENT_SET_NO":999,"REV_AT_EPOCH":15099,"BSTAR":9.7649357e-5,"MEAN_MOTION_DOT":7.68e-6,"MEAN_MOTION_DDOT":0},{"OBJECT_NAME":"IRIDIUM 179","OBJECT_ID":"2023-068W","EPOCH":"2026-03-04T10:56:56.837760","MEAN_MOTION":14.80240896,"ECCENTRICITY":0.00022627,"INCLINATION":86.6717,"RA_OF_ASC_NODE":77.8044,"ARG_OF_PERICENTER":93.6045,"MEAN_ANOMALY":266.5436,"EPHEMERIS_TYPE":0,"CLASSIFICATION_TYPE":"U","NORAD_CAT_ID":56730,"ELEMENT_SET_NO":999,"REV_AT_EPOCH":15087,"BSTAR":9.7817066e-5,"MEAN_MOTION_DOT":7.7e-6,"MEAN_MOTION_DDOT":0}]
